[{"OBJECT_NAME":"STARLINK-30457","OBJECT_ID":"2023-146K","EPOCH":"2026-03-09T01:19:36.039936","MEAN_MOTION":15.02534066,"ECCENTRICITY":0.00012621,"INCLINATION":43.0042,"RA_OF_ASC_NODE":316.555,"ARG_OF_PERICENTER":271.3954,"MEAN_ANOMALY":88.6744,"EPHEMERIS_TYPE":0,"CLASSIFICATION_TYPE":"U","NORAD_CAT_ID":57900,"ELEMENT_SET_NO":999,"REV_AT_EPOCH":13591,"BSTAR":-2.0150498e-5,"MEAN_MOTION_DOT":-4.76e-6,"MEAN_MOTION_DDOT":0},{"OBJECT_NAME":"FENGYUN 1C DEB","OBJECT_ID":"1999-025BQF","EPOCH":"2026-03-08T19:58:36.101856","MEAN_MOTION":15.15826086,"ECCENTRICITY":0.00798835,"INCLINATION":98.9812,"RA_OF_ASC_NODE":89.4872,"ARG_OF_PERICENTER":83.7388,"MEAN_ANOMALY":277.2932,"EPHEMERIS_TYPE":0,"CLASSIFICATION_TYPE":"U","NORAD_CAT_ID":31327,"ELEMENT_SET_NO":999,"REV_AT_EPOCH":1401,"BSTAR":0.0018254058,"MEAN_MOTION_DOT":0.00037915,"MEAN_MOTION_DDOT":0}]
